<?xml version="1.0" encoding="UTF-8"?>
<ndm xmlns:xsi="http://www.w3.org/2001/XMLSchema-instance" xsi:noNamespaceSchemaLocation="https://sanaregistry.org/r/ndmxml_unqualified/ndmxml-2.0.0-master-2.0.xsd">
<omm id="CCSDS_OMM_VERS" version="2.0">
<header><CREATION_DATE/><ORIGINATOR/></header><body><segment><metadata><OBJECT_NAME>ORBCOMM-X</OBJECT_NAME><OBJECT_ID>1991-050C</OBJECT_ID><CENTER_NAME>EARTH</CENTER_NAME><REF_FRAME>TEME</REF_FRAME><TIME_SYSTEM>UTC</TIME_SYSTEM><MEAN_ELEMENT_THEORY>SGP4</MEAN_ELEMENT_THEORY></metadata><data><meanElements><EPOCH>2025-11-04T09:56:44.576448</EPOCH><MEAN_MOTION>14.43385552</MEAN_MOTION><ECCENTRICITY>.00047288</ECCENTRICITY><INCLINATION>98.3280</INCLINATION><RA_OF_ASC_NODE>12.0507</RA_OF_ASC_NODE><ARG_OF_PERICENTER>115.9477</ARG_OF_PERICENTER><MEAN_ANOMALY>244.2202</MEAN_ANOMALY></meanElements><tleParameters><EPHEMERIS_TYPE>0</EPHEMERIS_TYPE><CLASSIFICATION_TYPE>U</CLASSIFICATION_TYPE><NORAD_CAT_ID>21576</NORAD_CAT_ID><ELEMENT_SET_NO>999</ELEMENT_SET_NO><REV_AT_EPOCH>80234</REV_AT_EPOCH><BSTAR>.13311214E-3</BSTAR><MEAN_MOTION_DOT>.406E-5</MEAN_MOTION_DOT><MEAN_MOTION_DDOT>0</MEAN_MOTION_DDOT></tleParameters></data></segment></body></omm>
<omm id="CCSDS_OMM_VERS" version="2.0">
<header><CREATION_DATE/><ORIGINATOR/></header><body><segment><metadata><OBJECT_NAME>ORBCOMM FM01</OBJECT_NAME><OBJECT_ID>1995-017A</OBJECT_ID><CENTER_NAME>EARTH</CENTER_NAME><REF_FRAME>TEME</REF_FRAME><TIME_SYSTEM>UTC</TIME_SYSTEM><MEAN_ELEMENT_THEORY>SGP4</MEAN_ELEMENT_THEORY></metadata><data><meanElements><EPOCH>2025-11-04T14:56:52.785024</EPOCH><MEAN_MOTION>14.92187569</MEAN_MOTION><ECCENTRICITY>.0000656</ECCENTRICITY><INCLINATION>69.9618</INCLINATION><RA_OF_ASC_NODE>83.4757</RA_OF_ASC_NODE><ARG_OF_PERICENTER>130.4803</ARG_OF_PERICENTER><MEAN_ANOMALY>229.6409</MEAN_ANOMALY></meanElements><tleParameters><EPHEMERIS_TYPE>0</EPHEMERIS_TYPE><CLASSIFICATION_TYPE>U</CLASSIFICATION_TYPE><NORAD_CAT_ID>23545</NORAD_CAT_ID><ELEMENT_SET_NO>999</ELEMENT_SET_NO><REV_AT_EPOCH>63344</REV_AT_EPOCH><BSTAR>.87772E-3</BSTAR><MEAN_MOTION_DOT>.8878E-4</MEAN_MOTION_DOT><MEAN_MOTION_DDOT>0</MEAN_MOTION_DDOT></tleParameters></data></segment></body></omm>
<omm id="CCSDS_OMM_VERS" version="2.0">
<header><CREATION_DATE/><ORIGINATOR/></header><body><segment><metadata><OBJECT_NAME>ORBCOMM FM08</OBJECT_NAME><OBJECT_ID>1997-084A</OBJECT_ID><CENTER_NAME>EARTH</CENTER_NAME><REF_FRAME>TEME</REF_FRAME><TIME_SYSTEM>UTC</TIME_SYSTEM><MEAN_ELEMENT_THEORY>SGP4</MEAN_ELEMENT_THEORY></metadata><data><meanElements><EPOCH>2025-11-04T13:34:22.498752</EPOCH><MEAN_MOTION>14.46364998</MEAN_MOTION><ECCENTRICITY>.0007965</ECCENTRICITY><INCLINATION>45.0135</INCLINATION><RA_OF_ASC_NODE>53.7379</RA_OF_ASC_NODE><ARG_OF_PERICENTER>235.3560</ARG_OF_PERICENTER><MEAN_ANOMALY>124.6541</MEAN_ANOMALY></meanElements><tleParameters><EPHEMERIS_TYPE>0</EPHEMERIS_TYPE><CLASSIFICATION_TYPE>U</CLASSIFICATION_TYPE><NORAD_CAT_ID>25112</NORAD_CAT_ID><ELEMENT_SET_NO>999</ELEMENT_SET_NO><REV_AT_EPOCH>46169</REV_AT_EPOCH><BSTAR>.58447E-3</BSTAR><MEAN_MOTION_DOT>.1974E-4</MEAN_MOTION_DOT><MEAN_MOTION_DDOT>0</MEAN_MOTION_DDOT></tleParameters></data></segment></body></omm>
<omm id="CCSDS_OMM_VERS" version="2.0">
<header><CREATION_DATE/><ORIGINATOR/></header><body><segment><metadata><OBJECT_NAME>ORBCOMM FM10</OBJECT_NAME><OBJECT_ID>1997-084B</OBJECT_ID><CENTER_NAME>EARTH</CENTER_NAME><REF_FRAME>TEME</REF_FRAME><TIME_SYSTEM>UTC</TIME_SYSTEM><MEAN_ELEMENT_THEORY>SGP4</MEAN_ELEMENT_THEORY></metadata><data><meanElements><EPOCH>2025-11-04T13:38:00.902400</EPOCH><MEAN_MOTION>14.46133212</MEAN_MOTION><ECCENTRICITY>.0006443</ECCENTRICITY><INCLINATION>45.0148</INCLINATION><RA_OF_ASC_NODE>56.3601</RA_OF_ASC_NODE><ARG_OF_PERICENTER>208.1542</ARG_OF_PERICENTER><MEAN_ANOMALY>151.8962</MEAN_ANOMALY></meanElements><tleParameters><EPHEMERIS_TYPE>0</EPHEMERIS_TYPE><CLASSIFICATION_TYPE>U</CLASSIFICATION_TYPE><NORAD_CAT_ID>25113</NORAD_CAT_ID><ELEMENT_SET_NO>999</ELEMENT_SET_NO><REV_AT_EPOCH>63683</REV_AT_EPOCH><BSTAR>.47798E-3</BSTAR><MEAN_MOTION_DOT>.1579E-4</MEAN_MOTION_DOT><MEAN_MOTION_DDOT>0</MEAN_MOTION_DDOT></tleParameters></data></segment></body></omm>
<omm id="CCSDS_OMM_VERS" version="2.0">
<header><CREATION_DATE/><ORIGINATOR/></header><body><segment><metadata><OBJECT_NAME>ORBCOMM FM11</OBJECT_NAME><OBJECT_ID>1997-084C</OBJECT_ID><CENTER_NAME>EARTH</CENTER_NAME><REF_FRAME>TEME</REF_FRAME><TIME_SYSTEM>UTC</TIME_SYSTEM><MEAN_ELEMENT_THEORY>SGP4</MEAN_ELEMENT_THEORY></metadata><data><meanElements><EPOCH>2025-11-04T15:59:34.298016</EPOCH><MEAN_MOTION>14.45872350</MEAN_MOTION><ECCENTRICITY>.0007246</ECCENTRICITY><INCLINATION>45.0136</INCLINATION><RA_OF_ASC_NODE>56.7800</RA_OF_ASC_NODE><ARG_OF_PERICENTER>209.2087</ARG_OF_PERICENTER><MEAN_ANOMALY>150.8360</MEAN_ANOMALY></meanElements><tleParameters><EPHEMERIS_TYPE>0</EPHEMERIS_TYPE><CLASSIFICATION_TYPE>U</CLASSIFICATION_TYPE><NORAD_CAT_ID>25114</NORAD_CAT_ID><ELEMENT_SET_NO>999</ELEMENT_SET_NO><REV_AT_EPOCH>46180</REV_AT_EPOCH><BSTAR>.55424E-3</BSTAR><MEAN_MOTION_DOT>.1844E-4</MEAN_MOTION_DOT><MEAN_MOTION_DDOT>0</MEAN_MOTION_DDOT></tleParameters></data></segment></body></omm>
<omm id="CCSDS_OMM_VERS" version="2.0">
<header><CREATION_DATE/><ORIGINATOR/></header><body><segment><metadata><OBJECT_NAME>ORBCOMM FM12</OBJECT_NAME><OBJECT_ID>1997-084D</OBJECT_ID><CENTER_NAME>EARTH</CENTER_NAME><REF_FRAME>TEME</REF_FRAME><TIME_SYSTEM>UTC</TIME_SYSTEM><MEAN_ELEMENT_THEORY>SGP4</MEAN_ELEMENT_THEORY></metadata><data><meanElements><EPOCH>2025-11-04T16:42:16.191072</EPOCH><MEAN_MOTION>14.45894260</MEAN_MOTION><ECCENTRICITY>.000631</ECCENTRICITY><INCLINATION>45.0142</INCLINATION><RA_OF_ASC_NODE>56.3741</RA_OF_ASC_NODE><ARG_OF_PERICENTER>207.2397</ARG_OF_PERICENTER><MEAN_ANOMALY>152.8125</MEAN_ANOMALY></meanElements><tleParameters><EPHEMERIS_TYPE>0</EPHEMERIS_TYPE><CLASSIFICATION_TYPE>U</CLASSIFICATION_TYPE><NORAD_CAT_ID>25115</NORAD_CAT_ID><ELEMENT_SET_NO>999</ELEMENT_SET_NO><REV_AT_EPOCH>46160</REV_AT_EPOCH><BSTAR>.52968E-3</BSTAR><MEAN_MOTION_DOT>.1757E-4</MEAN_MOTION_DOT><MEAN_MOTION_DDOT>0</MEAN_MOTION_DDOT></tleParameters></data></segment></body></omm>
<omm id="CCSDS_OMM_VERS" version="2.0">
<header><CREATION_DATE/><ORIGINATOR/></header><body><segment><metadata><OBJECT_NAME>ORBCOMM FM09</OBJECT_NAME><OBJECT_ID>1997-084E</OBJECT_ID><CENTER_NAME>EARTH</CENTER_NAME><REF_FRAME>TEME</REF_FRAME><TIME_SYSTEM>UTC</TIME_SYSTEM><MEAN_ELEMENT_THEORY>SGP4</MEAN_ELEMENT_THEORY></metadata><data><meanElements><EPOCH>2025-11-04T16:07:47.316288</EPOCH><MEAN_MOTION>14.45750612</MEAN_MOTION><ECCENTRICITY>.0007403</ECCENTRICITY><INCLINATION>45.0147</INCLINATION><RA_OF_ASC_NODE>57.5702</RA_OF_ASC_NODE><ARG_OF_PERICENTER>198.1435</ARG_OF_PERICENTER><MEAN_ANOMALY>161.9153</MEAN_ANOMALY></meanElements><tleParameters><EPHEMERIS_TYPE>0</EPHEMERIS_TYPE><CLASSIFICATION_TYPE>U</CLASSIFICATION_TYPE><NORAD_CAT_ID>25116</NORAD_CAT_ID><ELEMENT_SET_NO>999</ELEMENT_SET_NO><REV_AT_EPOCH>46180</REV_AT_EPOCH><BSTAR>.5527E-3</BSTAR><MEAN_MOTION_DOT>.1834E-4</MEAN_MOTION_DOT><MEAN_MOTION_DDOT>0</MEAN_MOTION_DDOT></tleParameters></data></segment></body></omm>

</ndm>
