ORBCOMM-X               
1 21576U 91050C   25308.41440482  .00000406  00000+0  13311-3 0  9992
2 21576  98.3280  12.0507 0004728 115.9477 244.2202 14.43385552802346
ORBCOMM FM01            
1 23545U 95017A   25308.62283316  .00008878  00000+0  87772-3 0  9994
2 23545  69.9618  83.4757 0000656 130.4803 229.6409 14.92187569633444
ORBCOMM FM08            
1 25112U 97084A   25308.56553818  .00001974  00000+0  58447-3 0  9999
2 25112  45.0135  53.7379 0007965 235.3560 124.6541 14.46364998461699
ORBCOMM FM10            
1 25113U 97084B   25308.56806600  .00001579  00000+0  47798-3 0  9998
2 25113  45.0148  56.3601 0006443 208.1542 151.8962 14.46133212636831
ORBCOMM FM11            
1 25114U 97084C   25308.66636920  .00001844  00000+0  55424-3 0  9996
2 25114  45.0136  56.7800 0007245 209.2087 150.8360 14.45872350461807
ORBCOMM FM12            
1 25115U 97084D   25308.69602074  .00001757  00000+0  52968-3 0  9996
2 25115  45.0142  56.3741 0006309 207.2397 152.8125 14.45894260461600
ORBCOMM FM09            
1 25116U 97084E   25308.67207542  .00001834  00000+0  55270-3 0  9991
2 25116  45.0147  57.5702 0007402 198.1435 161.9153 14.45750612461808
